start=new Date('2022-09-16T00:00:00.000Z').valueOf();
sats=[{"OBJECT_NAME":"STARLINK-3585","OBJECT_ID":"2022-022Z","NORAD_CAT_ID":"51875","FILE":"3575050","ELEMENT_SET_NO":"999","MEAN_MOTION":"15.08850334","LAUNCH_DATE":"2022-03-03","CENTER_NAME":"EARTH","SITE":"AFETR","TIME_SYSTEM":"UTC","COUNTRY_CODE":"US","EPHEMERIS_TYPE":"0","ECCENTRICITY":"0.00014890","MEAN_MOTION_DDOT":"0.0000000000000","REV_AT_EPOCH":"3126","PERIOD":"95.437","BSTAR":"-0.00017335000000","REF_FRAME":"TEME","SEMIMAJOR_AXIS":"6917.849","APOAPSIS":"540.744","EPOCH":"2022-09-15T20:20:16.833984","ARG_OF_PERICENTER":"56.7728","TLE_LINE1":"1 51875U 22022Z   22258.84741706 -.00003047  00000-0 -17335-3 0  9998","PERIAPSIS":"538.684","MEAN_ELEMENT_THEORY":"SGP4","MEAN_ANOMALY":"303.3407","RCS_SIZE":"LARGE","MEAN_MOTION_DOT":"-0.00003047","CLASSIFICATION_TYPE":"U","RA_OF_ASC_NODE":"314.1520","DECAY_DATE":null,"INCLINATION":"53.2203","OBJECT_TYPE":"PAYLOAD","TLE_LINE2":"2 51875  53.2203 314.1520 0001489  56.7728 303.3407 15.08850334 31265","GP_ID":"212682017"},{"GP_ID":"212683268","TLE_LINE2":"2 51876  53.2185 314.0986 0001689  52.8342 307.2804 15.08848600 31268","INCLINATION":"53.2185","OBJECT_TYPE":"PAYLOAD","DECAY_DATE":null,"RCS_SIZE":"LARGE","CLASSIFICATION_TYPE":"U","MEAN_MOTION_DOT":"0.00002031","RA_OF_ASC_NODE":"314.0986","MEAN_ANOMALY":"307.2804","MEAN_ELEMENT_THEORY":"SGP4","PERIAPSIS":"538.551","TLE_LINE1":"1 51876U 22022AA  22258.85749532  .00002031  00000-0  14566-3 0  9998","ARG_OF_PERICENTER":"52.8342","EPOCH":"2022-09-15T20:34:47.595648","APOAPSIS":"540.888","SEMIMAJOR_AXIS":"6917.854","REF_FRAME":"TEME","BSTAR":"0.00014566000000","MEAN_MOTION_DDOT":"0.0000000000000","PERIOD":"95.437","REV_AT_EPOCH":"3126","ECCENTRICITY":"0.00016890","EPHEMERIS_TYPE":"0","COUNTRY_CODE":"US","TIME_SYSTEM":"UTC","LAUNCH_DATE":"2022-03-03","CENTER_NAME":"EARTH","MEAN_MOTION":"15.08848600","SITE":"AFETR","ELEMENT_SET_NO":"999","NORAD_CAT_ID":"51876","FILE":"3575050","OBJECT_ID":"2022-022AA","OBJECT_NAME":"STARLINK-3583"},{"TIME_SYSTEM":"UTC","COUNTRY_CODE":"US","EPHEMERIS_TYPE":"0","ECCENTRICITY":"0.00016960","MEAN_MOTION_DDOT":"0.0000000000000","REV_AT_EPOCH":"3139","PERIOD":"95.438","BSTAR":"0.00008801900000","OBJECT_NAME":"STARLINK-3556","OBJECT_ID":"2022-022AB","NORAD_CAT_ID":"51877","FILE":"3575050","ELEMENT_SET_NO":"999","LAUNCH_DATE":"2022-03-03","CENTER_NAME":"EARTH","MEAN_MOTION":"15.08832951","SITE":"AFETR","MEAN_ELEMENT_THEORY":"SGP4","MEAN_ANOMALY":"299.0900","MEAN_MOTION_DOT":"0.00001113","RCS_SIZE":"LARGE","CLASSIFICATION_TYPE":"U","RA_OF_ASC_NODE":"304.1841","DECAY_DATE":null,"INCLINATION":"53.2176","OBJECT_TYPE":"PAYLOAD","TLE_LINE2":"2 51877  53.2176 304.1841 0001696  61.0262 299.0900 15.08832951 31391","GP_ID":"212683515","REF_FRAME":"TEME","SEMIMAJOR_AXIS":"6917.902","APOAPSIS":"540.940","EPOCH":"2022-09-15T20:09:38.114208","ARG_OF_PERICENTER":"61.0262","TLE_LINE1":"1 51877U 22022AB  22258.84002447  .00001113  00000-0  88019-4 0  9990","PERIAPSIS":"538.594"},{"OBJECT_ID":"2022-022AC","OBJECT_NAME":"STARLINK-3575","LAUNCH_DATE":"2022-03-03","CENTER_NAME":"EARTH","MEAN_MOTION":"15.08838102","SITE":"AFETR","NORAD_CAT_ID":"51878","FILE":"3575050","ELEMENT_SET_NO":"999","COUNTRY_CODE":"US","EPHEMERIS_TYPE":"0","TIME_SYSTEM":"UTC","BSTAR":"-0.00001581000000","ECCENTRICITY":"0.00016910","MEAN_MOTION_DDOT":"0.0000000000000","REV_AT_EPOCH":"3123","PERIOD":"95.438","APOAPSIS":"540.921","EPOCH":"2022-09-15T15:38:02.752800","REF_FRAME":"TEME","SEMIMAJOR_AXIS":"6917.886","PERIAPSIS":"538.581","ARG_OF_PERICENTER":"55.6688","TLE_LINE1":"1 51878U 22022AC  22258.65142075 -.00000540  00000-0 -15810-4 0  9996","MEAN_ANOMALY":"304.4464","MEAN_MOTION_DOT":"-0.00000540","RCS_SIZE":"LARGE","CLASSIFICATION_TYPE":"U","RA_OF_ASC_NODE":"315.0296","MEAN_ELEMENT_THEORY":"SGP4","TLE_LINE2":"2 51878  53.2197 315.0296 0001691  55.6688 304.4464 15.08838102 31239","GP_ID":"212681768","DECAY_DATE":null,"INCLINATION":"53.2197","OBJECT_TYPE":"PAYLOAD"},{"OBJECT_TYPE":"PAYLOAD","INCLINATION":"53.2169","DECAY_DATE":null,"GP_ID":"212682517","TLE_LINE2":"2 51879  53.2169 304.2176 0001648  55.4288 304.6859 15.08838251 31394","MEAN_ELEMENT_THEORY":"SGP4","RA_OF_ASC_NODE":"304.2176","CLASSIFICATION_TYPE":"U","RCS_SIZE":"LARGE","MEAN_MOTION_DOT":"0.00001423","MEAN_ANOMALY":"304.6859","TLE_LINE1":"1 51879U 22022AD  22258.83265983  .00001423  00000-0  10747-3 0  9993","ARG_OF_PERICENTER":"55.4288","PERIAPSIS":"538.611","SEMIMAJOR_AXIS":"6917.886","REF_FRAME":"TEME","EPOCH":"2022-09-15T19:59:01.809312","APOAPSIS":"540.891","REV_AT_EPOCH":"3139","PERIOD":"95.438","MEAN_MOTION_DDOT":"0.0000000000000","ECCENTRICITY":"0.00016480","BSTAR":"0.00010747000000","TIME_SYSTEM":"UTC","EPHEMERIS_TYPE":"0","COUNTRY_CODE":"US","ELEMENT_SET_NO":"999","FILE":"3575050","NORAD_CAT_ID":"51879","SITE":"AFETR","CENTER_NAME":"EARTH","LAUNCH_DATE":"2022-03-03","MEAN_MOTION":"15.08838251","OBJECT_NAME":"STARLINK-3572","OBJECT_ID":"2022-022AD"},{"OBJECT_NAME":"STARLINK-3566","OBJECT_ID":"2022-022AE","NORAD_CAT_ID":"51880","FILE":"3575050","ELEMENT_SET_NO":"999","LAUNCH_DATE":"2022-03-03","CENTER_NAME":"EARTH","MEAN_MOTION":"15.08838689","SITE":"AFETR","TIME_SYSTEM":"UTC","COUNTRY_CODE":"US","EPHEMERIS_TYPE":"0","ECCENTRICITY":"0.00015000","MEAN_MOTION_DDOT":"0.0000000000000","REV_AT_EPOCH":"3126","PERIOD":"95.438","BSTAR":"0.00010052000000","REF_FRAME":"TEME","SEMIMAJOR_AXIS":"6917.884","APOAPSIS":"540.787","EPOCH":"2022-09-15T21:07:58.272384","ARG_OF_PERICENTER":"64.8275","TLE_LINE1":"1 51880U 22022AE  22258.88053556  .00001312  00000-0  10052-3 0  9997","PERIAPSIS":"538.712","MEAN_ELEMENT_THEORY":"SGP4","MEAN_ANOMALY":"295.2872","RCS_SIZE":"LARGE","CLASSIFICATION_TYPE":"U","MEAN_MOTION_DOT":"0.00001312","RA_OF_ASC_NODE":"314.0194","DECAY_DATE":null,"INCLINATION":"53.2161","OBJECT_TYPE":"PAYLOAD","TLE_LINE2":"2 51880  53.2161 314.0194 0001500  64.8275 295.2872 15.08838689 31265","GP_ID":"212682769"},{"EPOCH":"2022-09-15T19:48:26.183520","APOAPSIS":"540.874","SEMIMAJOR_AXIS":"6917.903","REF_FRAME":"TEME","PERIAPSIS":"538.662","TLE_LINE1":"1 51881U 22022AF  22258.82530305  .00000760  00000-0  65870-4 0  9999","ARG_OF_PERICENTER":"55.3314","RA_OF_ASC_NODE":"304.2555","CLASSIFICATION_TYPE":"U","RCS_SIZE":"LARGE","MEAN_MOTION_DOT":"0.00000760","MEAN_ANOMALY":"304.7829","MEAN_ELEMENT_THEORY":"SGP4","GP_ID":"212683016","TLE_LINE2":"2 51881  53.2178 304.2555 0001599  55.3314 304.7829 15.08832538 31448","OBJECT_TYPE":"PAYLOAD","INCLINATION":"53.2178","DECAY_DATE":null,"OBJECT_ID":"2022-022AF","OBJECT_NAME":"STARLINK-3504","SITE":"AFETR","MEAN_MOTION":"15.08832538","LAUNCH_DATE":"2022-03-03","CENTER_NAME":"EARTH","ELEMENT_SET_NO":"999","FILE":"3575050","NORAD_CAT_ID":"51881","EPHEMERIS_TYPE":"0","COUNTRY_CODE":"US","TIME_SYSTEM":"UTC","BSTAR":"0.00006587000000","REV_AT_EPOCH":"3144","PERIOD":"95.438","MEAN_MOTION_DDOT":"0.0000000000000","ECCENTRICITY":"0.00015990"},{"TIME_SYSTEM":"UTC","COUNTRY_CODE":"US","EPHEMERIS_TYPE":"0","ECCENTRICITY":"0.00018960","MEAN_MOTION_DDOT":"0.0000000000000","PERIOD":"95.438","REV_AT_EPOCH":"3144","BSTAR":"0.00021441000000","OBJECT_NAME":"STARLINK-3570","OBJECT_ID":"2022-022AG","NORAD_CAT_ID":"51882","FILE":"3575050","ELEMENT_SET_NO":"999","CENTER_NAME":"EARTH","LAUNCH_DATE":"2022-03-03","MEAN_MOTION":"15.08837942","SITE":"AFETR","MEAN_ELEMENT_THEORY":"SGP4","MEAN_ANOMALY":"306.0819","RCS_SIZE":"LARGE","CLASSIFICATION_TYPE":"U","MEAN_MOTION_DOT":"0.00003126","RA_OF_ASC_NODE":"304.1976","DECAY_DATE":null,"INCLINATION":"53.2176","OBJECT_TYPE":"PAYLOAD","TLE_LINE2":"2 51882  53.2176 304.1976 0001896  54.0348 306.0819 15.08837942 31444","GP_ID":"212682268","REF_FRAME":"TEME","SEMIMAJOR_AXIS":"6917.887","APOAPSIS":"541.063","EPOCH":"2022-09-15T20:04:19.796736","ARG_OF_PERICENTER":"54.0348","TLE_LINE1":"1 51882U 22022AG  22258.83634024  .00003126  00000-0  21441-3 0  9998","PERIAPSIS":"538.440"},{"COUNTRY_CODE":"US","EPHEMERIS_TYPE":"0","TIME_SYSTEM":"UTC","BSTAR":"0.00004825900000","ECCENTRICITY":"0.00018310","MEAN_MOTION_DDOT":"0.0000000000000","REV_AT_EPOCH":"3138","PERIOD":"95.437","OBJECT_ID":"2022-022AH","OBJECT_NAME":"STARLINK-3576","LAUNCH_DATE":"2022-03-03","MEAN_MOTION":"15.08842888","CENTER_NAME":"EARTH","SITE":"AFETR","NORAD_CAT_ID":"51883","FILE":"3575051","ELEMENT_SET_NO":"999","MEAN_ANOMALY":"315.0752","CLASSIFICATION_TYPE":"U","RCS_SIZE":"LARGE","MEAN_MOTION_DOT":"0.00000480","RA_OF_ASC_NODE":"304.2915","MEAN_ELEMENT_THEORY":"SGP4","TLE_LINE2":"2 51883  53.2167 304.2915 0001831  45.0389 315.0752 15.08842888 31387","GP_ID":"212684827","DECAY_DATE":null,"INCLINATION":"53.2167","OBJECT_TYPE":"PAYLOAD","APOAPSIS":"541.003","EPOCH":"2022-09-15T19:39:12.163392","REF_FRAME":"TEME","SEMIMAJOR_AXIS":"6917.872","PERIAPSIS":"538.470","ARG_OF_PERICENTER":"45.0389","TLE_LINE1":"1 51883U 22022AH  22258.81889078  .00000480  00000-0  48259-4 0  9995"},{"APOAPSIS":"540.948","EPOCH":"2022-09-15T19:53:44.988288","REF_FRAME":"TEME","SEMIMAJOR_AXIS":"6917.908","PERIAPSIS":"538.597","ARG_OF_PERICENTER":"50.1018","TLE_LINE1":"1 51884U 22022AJ  22258.82899292 -.00001921  00000-0 -10264-3 0  9993","MEAN_ANOMALY":"310.0123","RA_OF_ASC_NODE":"304.2316","CLASSIFICATION_TYPE":"U","RCS_SIZE":"LARGE","MEAN_MOTION_DOT":"-0.00001921","MEAN_ELEMENT_THEORY":"SGP4","TLE_LINE2":"2 51884  53.2176 304.2316 0001699  50.1018 310.0123 15.08831024 31478","GP_ID":"212683269","DECAY_DATE":null,"OBJECT_TYPE":"PAYLOAD","INCLINATION":"53.2176","OBJECT_ID":"2022-022AJ","OBJECT_NAME":"STARLINK-3577","SITE":"AFETR","LAUNCH_DATE":"2022-03-03","MEAN_MOTION":"15.08831024","CENTER_NAME":"EARTH","FILE":"3575050","NORAD_CAT_ID":"51884","ELEMENT_SET_NO":"999","COUNTRY_CODE":"US","EPHEMERIS_TYPE":"0","TIME_SYSTEM":"UTC","BSTAR":"-0.00010264000000","ECCENTRICITY":"0.00016990","PERIOD":"95.438","REV_AT_EPOCH":"3147","MEAN_MOTION_DDOT":"0.0000000000000"}];
